[{"OBJECT_NAME":"STARLINK-34953","OBJECT_ID":"2025-179F","EPOCH":"2026-03-09T16:06:19.749888","MEAN_MOTION":15.05652216,"ECCENTRICITY":3.804e-5,"INCLINATION":97.6035,"RA_OF_ASC_NODE":112.9156,"ARG_OF_PERICENTER":88.9629,"MEAN_ANOMALY":271.1642,"EPHEMERIS_TYPE":0,"CLASSIFICATION_TYPE":"U","NORAD_CAT_ID":65240,"ELEMENT_SET_NO":999,"REV_AT_EPOCH":3197,"BSTAR":0.00026878177,"MEAN_MOTION_DOT":3.82e-5,"MEAN_MOTION_DDOT":0},{"OBJECT_NAME":"PEGASUS DEB","OBJECT_ID":"1994-029AGC","EPOCH":"2026-03-05T08:27:18.984384","MEAN_MOTION":14.52218034,"ECCENTRICITY":0.0236757,"INCLINATION":81.9426,"RA_OF_ASC_NODE":296.4283,"ARG_OF_PERICENTER":114.8689,"MEAN_ANOMALY":247.7324,"EPHEMERIS_TYPE":0,"CLASSIFICATION_TYPE":"U","NORAD_CAT_ID":39929,"ELEMENT_SET_NO":999,"REV_AT_EPOCH":61587,"BSTAR":0.0010545,"MEAN_MOTION_DOT":6.215e-5,"MEAN_MOTION_DDOT":0}]
